start=new Date('2023-04-07T00:00:00.000Z').valueOf();
sats=[{"BSTAR":"0.00218790000000","CLASSIFICATION_TYPE":"U","NORAD_CAT_ID":"46069","ARG_OF_PERICENTER":"104.1149","MEAN_MOTION_DOT":"0.00032446","SEMIMAJOR_AXIS":"6925.391","APOAPSIS":"548.094","INCLINATION":"53.0532","OBJECT_NAME":"STARLINK-1533","SITE":"AFETR","RA_OF_ASC_NODE":"211.0870","COUNTRY_CODE":"US","REV_AT_EPOCH":"14834","TIME_SYSTEM":"UTC","OBJECT_ID":"2020-055AU","GP_ID":"229641062","ELEMENT_SET_NO":"999","OBJECT_TYPE":"PAYLOAD","PERIAPSIS":"546.418","RCS_SIZE":"LARGE","TLE_LINE2":"2 46069  53.0532 211.0870 0001210 104.1149 255.9975 15.06386210148342","ECCENTRICITY":"0.00012100","EPHEMERIS_TYPE":"0","MEAN_MOTION_DDOT":"0.0000000000000","LAUNCH_DATE":"2020-08-07","EPOCH":"2023-04-06T16:23:19.963680","TLE_LINE1":"1 46069U 20055AU  23096.68286995  .00032446  00000-0  21879-2 0  9998","MEAN_MOTION":"15.06386210","FILE":"3882049","REF_FRAME":"TEME","MEAN_ELEMENT_THEORY":"SGP4","MEAN_ANOMALY":"255.9975","CENTER_NAME":"EARTH","PERIOD":"95.593","DECAY_DATE":null},{"TLE_LINE1":"1 46070U 20055AV  23096.69760277  .00017010  00000-0  11587-2 0  9996","MEAN_MOTION":"15.06379732","FILE":"3882049","REF_FRAME":"TEME","CENTER_NAME":"EARTH","MEAN_ANOMALY":"267.5322","MEAN_ELEMENT_THEORY":"SGP4","DECAY_DATE":null,"PERIOD":"95.593","RCS_SIZE":"LARGE","TLE_LINE2":"2 46070  53.0525 211.0229 0001122  92.5796 267.5322 15.06379732148340","ECCENTRICITY":"0.00011220","MEAN_MOTION_DDOT":"0.0000000000000","EPHEMERIS_TYPE":"0","LAUNCH_DATE":"2020-08-07","EPOCH":"2023-04-06T16:44:32.879328","REV_AT_EPOCH":"14834","OBJECT_ID":"2020-055AV","TIME_SYSTEM":"UTC","ELEMENT_SET_NO":"999","GP_ID":"229641290","OBJECT_TYPE":"PAYLOAD","PERIAPSIS":"546.499","BSTAR":"0.00115870000000","CLASSIFICATION_TYPE":"U","NORAD_CAT_ID":"46070","ARG_OF_PERICENTER":"92.5796","SEMIMAJOR_AXIS":"6925.411","MEAN_MOTION_DOT":"0.00017010","INCLINATION":"53.0525","APOAPSIS":"548.053","OBJECT_NAME":"STARLINK-1536","SITE":"AFETR","RA_OF_ASC_NODE":"211.0229","COUNTRY_CODE":"US"},{"EPHEMERIS_TYPE":"0","MEAN_MOTION_DDOT":"0.0000000000000","TLE_LINE2":"2 46071  53.0518 210.6392 0001332  66.4558 293.6571 15.06402597148351","ECCENTRICITY":"0.00013320","RCS_SIZE":"LARGE","EPOCH":"2023-04-06T18:46:38.986752","LAUNCH_DATE":"2020-08-07","FILE":"3882049","MEAN_MOTION":"15.06402597","TLE_LINE1":"1 46071U 20055AW  23096.78239568  .00034436  00000-0  23193-2 0  9998","DECAY_DATE":null,"PERIOD":"95.592","MEAN_ANOMALY":"293.6571","MEAN_ELEMENT_THEORY":"SGP4","CENTER_NAME":"EARTH","REF_FRAME":"TEME","ARG_OF_PERICENTER":"66.4558","CLASSIFICATION_TYPE":"U","NORAD_CAT_ID":"46071","BSTAR":"0.00231930000000","COUNTRY_CODE":"US","RA_OF_ASC_NODE":"210.6392","OBJECT_NAME":"STARLINK-1538","SITE":"AFETR","INCLINATION":"53.0518","APOAPSIS":"548.128","SEMIMAJOR_AXIS":"6925.341","MEAN_MOTION_DOT":"0.00034436","OBJECT_ID":"2020-055AW","TIME_SYSTEM":"UTC","REV_AT_EPOCH":"14835","PERIAPSIS":"546.283","OBJECT_TYPE":"PAYLOAD","ELEMENT_SET_NO":"999","GP_ID":"229639575"},{"ECCENTRICITY":"0.00015530","TLE_LINE2":"2 46072  53.0550 210.8249 0001553  34.2283 325.8806 15.06389644148338","EPHEMERIS_TYPE":"0","MEAN_MOTION_DDOT":"0.0000000000000","RCS_SIZE":"LARGE","EPOCH":"2023-04-06T17:46:53.435136","LAUNCH_DATE":"2020-08-07","MEAN_MOTION":"15.06389644","FILE":"3882049","TLE_LINE1":"1 46072U 20055AX  23096.74089624  .00019654  00000-0  13350-2 0  9990","DECAY_DATE":null,"PERIOD":"95.593","REF_FRAME":"TEME","MEAN_ANOMALY":"325.8806","CENTER_NAME":"EARTH","MEAN_ELEMENT_THEORY":"SGP4","ARG_OF_PERICENTER":"34.2283","BSTAR":"0.00133500000000","CLASSIFICATION_TYPE":"U","NORAD_CAT_ID":"46072","SITE":"AFETR","OBJECT_NAME":"STARLINK-1539","RA_OF_ASC_NODE":"210.8249","COUNTRY_CODE":"US","SEMIMAJOR_AXIS":"6925.380","MEAN_MOTION_DOT":"0.00019654","INCLINATION":"53.0550","APOAPSIS":"548.321","TIME_SYSTEM":"UTC","OBJECT_ID":"2020-055AX","REV_AT_EPOCH":"14833","PERIAPSIS":"546.170","ELEMENT_SET_NO":"999","GP_ID":"229639825","OBJECT_TYPE":"PAYLOAD"},{"TLE_LINE2":"2 46073  53.0554 210.7561 0001209 112.7283 247.3834 15.06394369148349","ECCENTRICITY":"0.00012090","EPHEMERIS_TYPE":"0","MEAN_MOTION_DDOT":"0.0000000000000","RCS_SIZE":"LARGE","EPOCH":"2023-04-06T18:09:29.257632","LAUNCH_DATE":"2020-08-07","MEAN_MOTION":"15.06394369","FILE":"3882049","TLE_LINE1":"1 46073U 20055AY  23096.75658863  .00029512  00000-0  19922-2 0  9994","PERIOD":"95.592","DECAY_DATE":null,"REF_FRAME":"TEME","MEAN_ANOMALY":"247.3834","CENTER_NAME":"EARTH","MEAN_ELEMENT_THEORY":"SGP4","ARG_OF_PERICENTER":"112.7283","BSTAR":"0.00199220000000","CLASSIFICATION_TYPE":"U","NORAD_CAT_ID":"46073","OBJECT_NAME":"STARLINK-1542","SITE":"AFETR","COUNTRY_CODE":"US","RA_OF_ASC_NODE":"210.7561","MEAN_MOTION_DOT":"0.00029512","SEMIMAJOR_AXIS":"6925.366","APOAPSIS":"548.068","INCLINATION":"53.0554","OBJECT_ID":"2020-055AY","TIME_SYSTEM":"UTC","REV_AT_EPOCH":"14834","PERIAPSIS":"546.394","GP_ID":"229640574","ELEMENT_SET_NO":"999","OBJECT_TYPE":"PAYLOAD"},{"COUNTRY_CODE":"US","RA_OF_ASC_NODE":"212.0130","SITE":"AFETR","OBJECT_NAME":"STARLINK-1549","APOAPSIS":"547.982","INCLINATION":"53.0542","MEAN_MOTION_DOT":"0.00020180","SEMIMAJOR_AXIS":"6925.344","ARG_OF_PERICENTER":"96.2967","NORAD_CAT_ID":"46074","CLASSIFICATION_TYPE":"U","BSTAR":"0.00136970000000","PERIAPSIS":"546.435","OBJECT_TYPE":"PAYLOAD","GP_ID":"229607468","ELEMENT_SET_NO":"999","TIME_SYSTEM":"UTC","OBJECT_ID":"2020-055AZ","REV_AT_EPOCH":"14829","EPOCH":"2023-04-06T11:26:06.277056","LAUNCH_DATE":"2020-08-07","MEAN_MOTION_DDOT":"0.0000000000000","EPHEMERIS_TYPE":"0","ECCENTRICITY":"0.00011170","TLE_LINE2":"2 46074  53.0542 212.0130 0001117  96.2967 263.8149 15.06401537148299","RCS_SIZE":"LARGE","PERIOD":"95.592","DECAY_DATE":null,"MEAN_ELEMENT_THEORY":"SGP4","MEAN_ANOMALY":"263.8149","CENTER_NAME":"EARTH","REF_FRAME":"TEME","FILE":"3881771","MEAN_MOTION":"15.06401537","TLE_LINE1":"1 46074U 20055AZ  23096.47646154  .00020180  00000-0  13697-2 0  9999"},{"PERIOD":"95.594","DECAY_DATE":null,"CENTER_NAME":"EARTH","MEAN_ANOMALY":"290.8711","MEAN_ELEMENT_THEORY":"SGP4","REF_FRAME":"TEME","FILE":"3881771","MEAN_MOTION":"15.06377352","TLE_LINE1":"1 46075U 20055BA  23096.50225779  .00008121  00000-0  56378-3 0  9995","EPOCH":"2023-04-06T12:03:15.073056","LAUNCH_DATE":"2020-08-07","MEAN_MOTION_DDOT":"0.0000000000000","EPHEMERIS_TYPE":"0","ECCENTRICITY":"0.00014030","TLE_LINE2":"2 46075  53.0526 211.8981 0001403  69.2428 290.8711 15.06377352148307","RCS_SIZE":"LARGE","PERIAPSIS":"546.311","OBJECT_TYPE":"PAYLOAD","GP_ID":"229608220","ELEMENT_SET_NO":"999","TIME_SYSTEM":"UTC","OBJECT_ID":"2020-055BA","REV_AT_EPOCH":"14830","COUNTRY_CODE":"US","RA_OF_ASC_NODE":"211.8981","OBJECT_NAME":"STARLINK-1551","SITE":"AFETR","APOAPSIS":"548.255","INCLINATION":"53.0526","MEAN_MOTION_DOT":"0.00008121","SEMIMAJOR_AXIS":"6925.418","ARG_OF_PERICENTER":"69.2428","CLASSIFICATION_TYPE":"U","NORAD_CAT_ID":"46075","BSTAR":"0.00056378000000"},{"ARG_OF_PERICENTER":"93.4598","NORAD_CAT_ID":"46076","CLASSIFICATION_TYPE":"U","BSTAR":"0.00139190000000","COUNTRY_CODE":"US","RA_OF_ASC_NODE":"210.8853","SITE":"AFETR","OBJECT_NAME":"STARLINK-1552","INCLINATION":"53.0555","APOAPSIS":"548.383","SEMIMAJOR_AXIS":"6925.409","MEAN_MOTION_DOT":"0.00020501","TIME_SYSTEM":"UTC","OBJECT_ID":"2020-055BB","REV_AT_EPOCH":"14832","PERIAPSIS":"546.165","OBJECT_TYPE":"PAYLOAD","ELEMENT_SET_NO":"999","GP_ID":"229640313","MEAN_MOTION_DDOT":"0.0000000000000","EPHEMERIS_TYPE":"0","TLE_LINE2":"2 46076  53.0555 210.8853 0001601  93.4598 266.6574 15.06380349148324","ECCENTRICITY":"0.00016010","RCS_SIZE":"LARGE","EPOCH":"2023-04-06T17:27:01.495296","LAUNCH_DATE":"2020-08-07","FILE":"3882049","MEAN_MOTION":"15.06380349","TLE_LINE1":"1 46076U 20055BB  23096.72710064  .00020501  00000-0  13919-2 0  9995","DECAY_DATE":null,"PERIOD":"95.593","MEAN_ELEMENT_THEORY":"SGP4","MEAN_ANOMALY":"266.6574","CENTER_NAME":"EARTH","REF_FRAME":"TEME"},{"OBJECT_ID":"2020-055BC","TIME_SYSTEM":"UTC","REV_AT_EPOCH":"14826","PERIAPSIS":"546.372","ELEMENT_SET_NO":"999","GP_ID":"229606719","OBJECT_TYPE":"PAYLOAD","ARG_OF_PERICENTER":"68.1166","BSTAR":"0.00095044000000","CLASSIFICATION_TYPE":"U","NORAD_CAT_ID":"46077","OBJECT_NAME":"STARLINK-1559","SITE":"AFETR","RA_OF_ASC_NODE":"211.8651","COUNTRY_CODE":"US","SEMIMAJOR_AXIS":"6925.395","MEAN_MOTION_DOT":"0.00013898","INCLINATION":"53.0530","APOAPSIS":"548.149","MEAN_MOTION":"15.06384756","FILE":"3881771","TLE_LINE1":"1 46077U 20055BC  23096.50963345  .00013898  00000-0  95044-3 0  9995","DECAY_DATE":null,"PERIOD":"95.593","REF_FRAME":"TEME","MEAN_ANOMALY":"291.9960","MEAN_ELEMENT_THEORY":"SGP4","CENTER_NAME":"EARTH","ECCENTRICITY":"0.00012830","TLE_LINE2":"2 46077  53.0530 211.8651 0001283  68.1166 291.9960 15.06384756148260","MEAN_MOTION_DDOT":"0.0000000000000","EPHEMERIS_TYPE":"0","RCS_SIZE":"LARGE","EPOCH":"2023-04-06T12:13:52.330080","LAUNCH_DATE":"2020-08-07"},{"PERIOD":"95.593","DECAY_DATE":null,"REF_FRAME":"TEME","MEAN_ELEMENT_THEORY":"SGP4","MEAN_ANOMALY":"289.7780","CENTER_NAME":"EARTH","MEAN_MOTION":"15.06379850","FILE":"3882049","TLE_LINE1":"1 46078U 20055BD  23096.75290633  .00030221  00000-0  20402-2 0  9990","EPOCH":"2023-04-06T18:04:11.106912","LAUNCH_DATE":"2020-08-07","TLE_LINE2":"2 46078  53.0531 210.7725 0001382  70.3358 289.7780 15.06379850148310","ECCENTRICITY":"0.00013820","EPHEMERIS_TYPE":"0","MEAN_MOTION_DDOT":"0.0000000000000","RCS_SIZE":"LARGE","PERIAPSIS":"546.318","GP_ID":"229641291","ELEMENT_SET_NO":"999","OBJECT_TYPE":"PAYLOAD","TIME_SYSTEM":"UTC","OBJECT_ID":"2020-055BD","REV_AT_EPOCH":"14831","SITE":"AFETR","OBJECT_NAME":"STARLINK-1563","RA_OF_ASC_NODE":"210.7725","COUNTRY_CODE":"US","MEAN_MOTION_DOT":"0.00030221","SEMIMAJOR_AXIS":"6925.410","APOAPSIS":"548.232","INCLINATION":"53.0531","ARG_OF_PERICENTER":"70.3358","BSTAR":"0.00204020000000","CLASSIFICATION_TYPE":"U","NORAD_CAT_ID":"46078"}];
